STARLINK-2395           
1 47814U 21018AD  26068.72440508 -.00001201  00000+0 -28418-4 0  9990
2 47814  53.1608 242.6891 0001340  79.3247 280.7905 15.30198797276793
YAM-7                   
1 60504U 24149AN  26068.71799904  .00009009  00000+0  30984-3 0  9997
2 60504  97.3828 149.4631 0001973 296.5121  63.5918 15.30304554 86835
