[{"OBJECT_NAME":"STARLINK-2395","OBJECT_ID":"2021-018AD","EPOCH":"2026-03-09T17:23:08.598912","MEAN_MOTION":15.30198797,"ECCENTRICITY":0.00013405,"INCLINATION":53.1608,"RA_OF_ASC_NODE":242.6891,"ARG_OF_PERICENTER":79.3247,"MEAN_ANOMALY":280.7905,"EPHEMERIS_TYPE":0,"CLASSIFICATION_TYPE":"U","NORAD_CAT_ID":47814,"ELEMENT_SET_NO":999,"REV_AT_EPOCH":27679,"BSTAR":-2.8417586e-5,"MEAN_MOTION_DOT":-1.201e-5,"MEAN_MOTION_DDOT":0},{"OBJECT_NAME":"YAM-7","OBJECT_ID":"2024-149AN","EPOCH":"2026-03-09T17:13:55.117920","MEAN_MOTION":15.30304554,"ECCENTRICITY":0.00019733,"INCLINATION":97.3828,"RA_OF_ASC_NODE":149.4631,"ARG_OF_PERICENTER":296.5121,"MEAN_ANOMALY":63.5918,"EPHEMERIS_TYPE":0,"CLASSIFICATION_TYPE":"U","NORAD_CAT_ID":60504,"ELEMENT_SET_NO":999,"REV_AT_EPOCH":8683,"BSTAR":0.00030984439,"MEAN_MOTION_DOT":9.009e-5,"MEAN_MOTION_DDOT":0}]
